start=new Date('2021-12-09T00:00:00.000Z').valueOf();
sats=[{"MEAN_MOTION":"15.06394016","MEAN_ANOMALY":"294.0376","ARG_OF_PERICENTER":"66.0819","LAUNCH_DATE":"2020-08-07","ELEMENT_SET_NO":"999","FILE":"3235972","INCLINATION":"53.0534","REF_FRAME":"TEME","GP_ID":"191362143","OBJECT_NAME":"STARLINK-1560","APOAPSIS":"548.598","TLE_LINE1":"1 46036U 20055K   21342.94478317 -.00000201  00000-0  54411-5 0  9990","EPHEMERIS_TYPE":"0","MEAN_ELEMENT_THEORY":"SGP4","ECCENTRICITY":"0.00019720","CLASSIFICATION_TYPE":"U","PERIOD":"95.593","DECAY_DATE":null,"NORAD_CAT_ID":"46036","TIME_SYSTEM":"UTC","RCS_SIZE":"LARGE","REV_AT_EPOCH":"7501","SITE":"AFETR","OBJECT_ID":"2020-055K","SEMIMAJOR_AXIS":"6925.367","MEAN_MOTION_DOT":"-0.00000201","OBJECT_TYPE":"PAYLOAD","PERIAPSIS":"545.866","EPOCH":"2021-12-08T22:40:29.265888","TLE_LINE2":"2 46036  53.0534 252.6690 0001972  66.0819 294.0376 15.06394016 75019","COUNTRY_CODE":"US","RA_OF_ASC_NODE":"252.6690","MEAN_MOTION_DDOT":"0.0000000000000","BSTAR":"0.00000544110000","CENTER_NAME":"EARTH"},{"SEMIMAJOR_AXIS":"6925.379","OBJECT_ID":"2020-055L","MEAN_MOTION_DOT":"-0.00000476","OBJECT_TYPE":"PAYLOAD","RCS_SIZE":"LARGE","NORAD_CAT_ID":"46037","TIME_SYSTEM":"UTC","SITE":"AFETR","REV_AT_EPOCH":"7500","CENTER_NAME":"EARTH","TLE_LINE2":"2 46037  53.0551 252.6993 0002220  63.7001 296.4215 15.06390227 75006","EPOCH":"2021-12-08T22:35:11.040864","PERIAPSIS":"545.706","BSTAR":"-0.00001302600000","MEAN_MOTION_DDOT":"0.0000000000000","RA_OF_ASC_NODE":"252.6993","COUNTRY_CODE":"US","GP_ID":"191362393","APOAPSIS":"548.781","OBJECT_NAME":"STARLINK-1565","ARG_OF_PERICENTER":"63.7001","MEAN_ANOMALY":"296.4215","MEAN_MOTION":"15.06390227","REF_FRAME":"TEME","FILE":"3235972","INCLINATION":"53.0551","ELEMENT_SET_NO":"999","LAUNCH_DATE":"2020-08-07","ECCENTRICITY":"0.00022200","DECAY_DATE":null,"PERIOD":"95.593","CLASSIFICATION_TYPE":"U","MEAN_ELEMENT_THEORY":"SGP4","EPHEMERIS_TYPE":"0","TLE_LINE1":"1 46037U 20055L   21342.94110001 -.00000476  00000-0 -13026-4 0  9995"},{"MEAN_MOTION_DOT":"0.00001089","OBJECT_TYPE":"PAYLOAD","SEMIMAJOR_AXIS":"6925.338","OBJECT_ID":"2020-055M","SITE":"AFETR","REV_AT_EPOCH":"7499","RCS_SIZE":"LARGE","NORAD_CAT_ID":"46038","TIME_SYSTEM":"UTC","CENTER_NAME":"EARTH","BSTAR":"0.00009200200000","MEAN_MOTION_DDOT":"0.0000000000000","RA_OF_ASC_NODE":"252.9317","COUNTRY_CODE":"US","TLE_LINE2":"2 46038  53.0548 252.9317 0002504  62.7414 297.3830 15.06403330 74998","EPOCH":"2021-12-08T21:20:51.268992","PERIAPSIS":"545.469","APOAPSIS":"548.937","OBJECT_NAME":"STARLINK-1567","GP_ID":"191363145","INCLINATION":"53.0548","FILE":"3235972","REF_FRAME":"TEME","ELEMENT_SET_NO":"999","LAUNCH_DATE":"2020-08-07","ARG_OF_PERICENTER":"62.7414","MEAN_ANOMALY":"297.3830","MEAN_MOTION":"15.06403330","DECAY_DATE":null,"PERIOD":"95.592","CLASSIFICATION_TYPE":"U","ECCENTRICITY":"0.00025040","MEAN_ELEMENT_THEORY":"SGP4","EPHEMERIS_TYPE":"0","TLE_LINE1":"1 46038U 20055M   21342.88948228  .00001089  00000-0  92002-4 0  9999"},{"CENTER_NAME":"EARTH","TLE_LINE2":"2 46039  53.0548 252.8980 0002217  66.8519 293.2704 15.06396560 74997","EPOCH":"2021-12-08T21:31:29.070336","PERIAPSIS":"545.689","BSTAR":"0.00003138600000","MEAN_MOTION_DDOT":"0.0000000000000","RA_OF_ASC_NODE":"252.8980","COUNTRY_CODE":"US","SEMIMAJOR_AXIS":"6925.359","OBJECT_ID":"2020-055N","OBJECT_TYPE":"PAYLOAD","MEAN_MOTION_DOT":"0.00000186","RCS_SIZE":"LARGE","NORAD_CAT_ID":"46039","TIME_SYSTEM":"UTC","SITE":"AFETR","REV_AT_EPOCH":"7499","ECCENTRICITY":"0.00022170","PERIOD":"95.592","DECAY_DATE":null,"CLASSIFICATION_TYPE":"U","MEAN_ELEMENT_THEORY":"SGP4","TLE_LINE1":"1 46039U 20055N   21342.89686424  .00000186  00000-0  31386-4 0  9993","EPHEMERIS_TYPE":"0","GP_ID":"191362895","APOAPSIS":"548.759","OBJECT_NAME":"STARLINK-1569","ARG_OF_PERICENTER":"66.8519","MEAN_ANOMALY":"293.2704","MEAN_MOTION":"15.06396560","FILE":"3235972","REF_FRAME":"TEME","INCLINATION":"53.0548","ELEMENT_SET_NO":"999","LAUNCH_DATE":"2020-08-07"},{"PERIOD":"95.592","DECAY_DATE":null,"CLASSIFICATION_TYPE":"U","ECCENTRICITY":"0.00020420","MEAN_ELEMENT_THEORY":"SGP4","EPHEMERIS_TYPE":"0","TLE_LINE1":"1 46040U 20055P   21342.92634420  .00001334  00000-0  10848-3 0  9993","APOAPSIS":"548.633","OBJECT_NAME":"STARLINK-1576","GP_ID":"191361643","FILE":"3235972","REF_FRAME":"TEME","INCLINATION":"53.0555","ELEMENT_SET_NO":"999","LAUNCH_DATE":"2020-08-07","MEAN_ANOMALY":"298.3881","ARG_OF_PERICENTER":"61.7314","MEAN_MOTION":"15.06398290","CENTER_NAME":"EARTH","BSTAR":"0.00010848000000","MEAN_MOTION_DDOT":"0.0000000000000","RA_OF_ASC_NODE":"252.7680","COUNTRY_CODE":"US","TLE_LINE2":"2 46040  53.0555 252.7680 0002042  61.7314 298.3881 15.06398290 74967","EPOCH":"2021-12-08T22:13:56.138880","PERIAPSIS":"545.805","MEAN_MOTION_DOT":"0.00001334","OBJECT_TYPE":"PAYLOAD","SEMIMAJOR_AXIS":"6925.354","OBJECT_ID":"2020-055P","SITE":"AFETR","REV_AT_EPOCH":"7496","RCS_SIZE":"LARGE","NORAD_CAT_ID":"46040","TIME_SYSTEM":"UTC"},{"MEAN_MOTION_DOT":"0.00001179","OBJECT_TYPE":"PAYLOAD","SEMIMAJOR_AXIS":"6925.348","OBJECT_ID":"2020-055Q","SITE":"AFETR","REV_AT_EPOCH":"7497","RCS_SIZE":"LARGE","NORAD_CAT_ID":"46041","TIME_SYSTEM":"UTC","CENTER_NAME":"EARTH","BSTAR":"0.00009801400000","MEAN_MOTION_DDOT":"0.0000000000000","RA_OF_ASC_NODE":"252.7557","COUNTRY_CODE":"US","TLE_LINE2":"2 46041  53.0554 252.7557 0001986  62.2260 297.8930 15.06400070 74972","EPOCH":"2021-12-08T22:17:53.332800","PERIAPSIS":"545.838","APOAPSIS":"548.589","OBJECT_NAME":"STARLINK-1580","GP_ID":"191361893","REF_FRAME":"TEME","FILE":"3235972","INCLINATION":"53.0554","ELEMENT_SET_NO":"999","LAUNCH_DATE":"2020-08-07","MEAN_ANOMALY":"297.8930","ARG_OF_PERICENTER":"62.2260","MEAN_MOTION":"15.06400070","PERIOD":"95.592","DECAY_DATE":null,"CLASSIFICATION_TYPE":"U","ECCENTRICITY":"0.00019860","MEAN_ELEMENT_THEORY":"SGP4","EPHEMERIS_TYPE":"0","TLE_LINE1":"1 46041U 20055Q   21342.92908950  .00001179  00000-0  98014-4 0  9995"},{"CENTER_NAME":"EARTH","PERIAPSIS":"545.728","EPOCH":"2021-12-08T21:52:42.582144","TLE_LINE2":"2 46042  53.0552 252.8308 0002152  64.1940 295.9271 15.06398349 74969","COUNTRY_CODE":"US","RA_OF_ASC_NODE":"252.8308","MEAN_MOTION_DDOT":"0.0000000000000","BSTAR":"0.00009462400000","OBJECT_ID":"2020-055R","SEMIMAJOR_AXIS":"6925.354","OBJECT_TYPE":"PAYLOAD","MEAN_MOTION_DOT":"0.00001128","NORAD_CAT_ID":"46042","TIME_SYSTEM":"UTC","RCS_SIZE":"LARGE","REV_AT_EPOCH":"7496","SITE":"AFETR","ECCENTRICITY":"0.00021520","CLASSIFICATION_TYPE":"U","PERIOD":"95.592","DECAY_DATE":null,"TLE_LINE1":"1 46042U 20055R   21342.91160396  .00001128  00000-0  94624-4 0  9996","EPHEMERIS_TYPE":"0","MEAN_ELEMENT_THEORY":"SGP4","GP_ID":"191362645","OBJECT_NAME":"STARLINK-1581","APOAPSIS":"548.709","MEAN_MOTION":"15.06398349","MEAN_ANOMALY":"295.9271","ARG_OF_PERICENTER":"64.1940","LAUNCH_DATE":"2020-08-07","ELEMENT_SET_NO":"999","REF_FRAME":"TEME","FILE":"3235972","INCLINATION":"53.0552"},{"DECAY_DATE":null,"PERIOD":"95.593","CLASSIFICATION_TYPE":"U","ECCENTRICITY":"0.00023270","MEAN_ELEMENT_THEORY":"SGP4","TLE_LINE1":"1 46043U 20055S   21342.90423870 -.00000021  00000-0  17528-4 0  9995","EPHEMERIS_TYPE":"0","APOAPSIS":"548.847","OBJECT_NAME":"STARLINK-1582","GP_ID":"191363396","FILE":"3235972","INCLINATION":"53.0552","REF_FRAME":"TEME","ELEMENT_SET_NO":"999","LAUNCH_DATE":"2020-08-07","ARG_OF_PERICENTER":"63.3461","MEAN_ANOMALY":"296.7766","MEAN_MOTION":"15.06392734","CENTER_NAME":"EARTH","BSTAR":"0.00001752800000","MEAN_MOTION_DDOT":"0.0000000000000","RA_OF_ASC_NODE":"252.8633","COUNTRY_CODE":"US","TLE_LINE2":"2 46043  53.0552 252.8633 0002327  63.3461 296.7766 15.06392734 74997","EPOCH":"2021-12-08T21:42:06.223680","PERIAPSIS":"545.624","MEAN_MOTION_DOT":"-0.00000021","OBJECT_TYPE":"PAYLOAD","SEMIMAJOR_AXIS":"6925.371","OBJECT_ID":"2020-055S","SITE":"AFETR","REV_AT_EPOCH":"7499","RCS_SIZE":"LARGE","TIME_SYSTEM":"UTC","NORAD_CAT_ID":"46043"},{"OBJECT_TYPE":"PAYLOAD","MEAN_MOTION_DOT":"-0.00000594","SEMIMAJOR_AXIS":"6925.362","OBJECT_ID":"2020-055T","SITE":"AFETR","REV_AT_EPOCH":"7500","RCS_SIZE":"LARGE","NORAD_CAT_ID":"46044","TIME_SYSTEM":"UTC","CENTER_NAME":"EARTH","BSTAR":"-0.00002095300000","MEAN_MOTION_DDOT":"0.0000000000000","RA_OF_ASC_NODE":"252.7865","COUNTRY_CODE":"US","TLE_LINE2":"2 46044  53.0543 252.7865 0002258  58.4501 301.6708 15.06395461 75002","EPOCH":"2021-12-08T22:03:20.478528","PERIAPSIS":"545.664","APOAPSIS":"548.791","OBJECT_NAME":"STARLINK-1584","GP_ID":"191362144","REF_FRAME":"TEME","FILE":"3235972","INCLINATION":"53.0543","ELEMENT_SET_NO":"999","LAUNCH_DATE":"2020-08-07","MEAN_ANOMALY":"301.6708","ARG_OF_PERICENTER":"58.4501","MEAN_MOTION":"15.06395461","DECAY_DATE":null,"PERIOD":"95.592","CLASSIFICATION_TYPE":"U","ECCENTRICITY":"0.00022580","MEAN_ELEMENT_THEORY":"SGP4","TLE_LINE1":"1 46044U 20055T   21342.91898702 -.00000594  00000-0 -20953-4 0  9999","EPHEMERIS_TYPE":"0"},{"RCS_SIZE":"LARGE","NORAD_CAT_ID":"46045","TIME_SYSTEM":"UTC","SITE":"AFETR","REV_AT_EPOCH":"7498","SEMIMAJOR_AXIS":"6925.366","OBJECT_ID":"2020-055U","MEAN_MOTION_DOT":"-0.00000407","OBJECT_TYPE":"PAYLOAD","TLE_LINE2":"2 46045  53.0540 252.7424 0002336  61.8927 298.2298 15.06394189 74985","EPOCH":"2021-12-08T22:19:15.452544","PERIAPSIS":"545.614","BSTAR":"-0.00000840810000","MEAN_MOTION_DDOT":"0.0000000000000","RA_OF_ASC_NODE":"252.7424","COUNTRY_CODE":"US","CENTER_NAME":"EARTH","MEAN_ANOMALY":"298.2298","ARG_OF_PERICENTER":"61.8927","MEAN_MOTION":"15.06394189","REF_FRAME":"TEME","FILE":"3235972","INCLINATION":"53.0540","ELEMENT_SET_NO":"999","LAUNCH_DATE":"2020-08-07","GP_ID":"191362394","APOAPSIS":"548.849","OBJECT_NAME":"STARLINK-1591","MEAN_ELEMENT_THEORY":"SGP4","TLE_LINE1":"1 46045U 20055U   21342.93003996 -.00000407  00000-0 -84081-5 0  9991","EPHEMERIS_TYPE":"0","ECCENTRICITY":"0.00023360","PERIOD":"95.593","DECAY_DATE":null,"CLASSIFICATION_TYPE":"U"}];
